{{Infobox Planet  
| name = 599 Luisa
| image = 
| caption = 
| discovery=yes | physical_characteristics = yes | bgcolour=#FFFFC0
| discovery_ref = 
| discoverer = [[乔尔·梅特卡夫|乔尔·梅特卡夫]]
| discovery_site = [[马萨诸塞州|马萨诸塞州]][[汤顿_(马萨诸塞州)|汤顿]]
| discovered =  1906年4月25日
| mp_name = 599
| alt_names = 1906 UJ
| named_after = 
| mp_category=[[小行星带|主带小行星]]
| orbit_ref = <ref>[http://ssd.jpl.nasa.gov/sbdb.cgi?sstr=599+Luisa 599 Luisa (1906 UJ)]</ref>
| epoch = 2011年8月27日
| semimajor= 2.773442038548319AU
| perihelion=1.961237188935721AU
| aphelion= 3.585646888160916[[天文单位|AU]]
| eccentricity =0.2928508468263226	
| period = 1687.046557587538[[日|地球日]]<br>4.62[[年|地球年]] 
| inclination=16.66194754945091[[角度|°]]
| asc_node=44.63545315555442°
| arg_peri=292.9520367299276°	
| mean_anomaly=209.5347165841643°
| avg_speed=
 | dimensions=64.87千米
 | mass=
 | density=
 | surface_grav=
 | escape_velocity=
 | rotation=9.566小时
 | spectral_type=[[S-型小行星|S]]
 | magnitude=
 | abs_magnitude=8.71
 | albedo=0.1377	
 | single_temperature=
}}
'''小行星599'''（'''599 Luisa'''），是由[[美国|美国]][[天文学家|天文学家]][[乔尔·梅特卡夫|乔尔·梅特卡夫]]于1906年4月25日在美国[[马萨诸塞州|马萨诸塞州]][[汤顿_(马萨诸塞州)|汤顿]]发现的[[小行星带|主带]][[小行星|小行星]]。

小行星599的命名依据不详。

== 参考资料 ==
{{Reflist}}

{{Minor Planet Number|(598)[[小行星598|小行星598]]|(600)[[小行星600|小行星600]]}}

[[Category:小行星带天体|Category:小行星带天体]]
[[Category:1906年发现的小行星|Category:1906年发现的小行星]]
[[Category:S-型小行星|Category:S-型小行星]]